[{"OBJECT_NAME":"STARLINK-35234","OBJECT_ID":"2025-207K","EPOCH":"2026-03-09T17:16:40.118592","MEAN_MOTION":15.056629,"ECCENTRICITY":0.00028496,"INCLINATION":97.6007,"RA_OF_ASC_NODE":138.6563,"ARG_OF_PERICENTER":188.3663,"MEAN_ANOMALY":171.7517,"EPHEMERIS_TYPE":0,"CLASSIFICATION_TYPE":"U","NORAD_CAT_ID":65601,"ELEMENT_SET_NO":999,"REV_AT_EPOCH":2826,"BSTAR":7.6963005e-5,"MEAN_MOTION_DOT":1.05e-5,"MEAN_MOTION_DDOT":0},{"OBJECT_NAME":"FENGYUN 1C DEB","OBJECT_ID":"1999-025BZZ","EPOCH":"2026-03-09T13:05:44.544480","MEAN_MOTION":14.97363263,"ECCENTRICITY":0.00745573,"INCLINATION":99.0712,"RA_OF_ASC_NODE":279.0573,"ARG_OF_PERICENTER":15.484,"MEAN_ANOMALY":344.8634,"EPHEMERIS_TYPE":0,"CLASSIFICATION_TYPE":"U","NORAD_CAT_ID":31619,"ELEMENT_SET_NO":999,"REV_AT_EPOCH":64782,"BSTAR":0.0036839182,"MEAN_MOTION_DOT":0.00045478,"MEAN_MOTION_DDOT":0}]
